{
  "type": "FeatureCollection",
  "features": [
    {
      "type": "Feature",
      "properties": {
        "norad_id": 44794,
        "name": "BEIDOU-3 M21 (C43)",
        "group": "beidou",
        "lat": 52.74030742054285,
        "lon": 53.717858065920744,
        "alt_km": 21521.721762944795,
        "timestamp": "2025-12-24T07:45:06.465309+00:00",
        "meta_object_name": "BEIDOU-3 M21 (C43)",
        "meta_object_id": "2019-078B",
        "meta_epoch": "2025-12-22T00:36:11.320992",
        "meta_mean_motion": 1.86227906,
        "meta_eccentricity": 0.00042988,
        "meta_inclination": 54.0732,
        "meta_ra_of_asc_node": 306.0255,
        "meta_arg_of_pericenter": 12.7951,
        "meta_mean_anomaly": 347.2162,
        "meta_ephemeris_type": 0,
        "meta_classification_type": "U",
        "meta_norad_cat_id": 44794,
        "meta_element_set_no": 999,
        "meta_rev_at_epoch": 4135,
        "meta_bstar": 0,
        "meta_mean_motion_dot": -5.8e-07,
        "meta_mean_motion_ddot": 0,
        "tle_line1": "1 44794U 19078B   25356.02513103 -.00000058  00000+0  00000+0 0  9991",
        "tle_line2": "2 44794  54.0732 306.0255 0004298  12.7951 347.2162  1.86227906 41359"
      },
      "geometry": {
        "type": "Point",
        "coordinates": [
          53.717858065920744,
          52.74030742054285
        ]
      }
    },
    {
      "type": "Feature",
      "properties": {
        "norad_id": 44864,
        "name": "BEIDOU-3 M19 (C41)",
        "group": "beidou",
        "lat": -48.23495057161447,
        "lon": 20.569410125812887,
        "alt_km": 21483.289372114643,
        "timestamp": "2025-12-24T07:45:06.465321+00:00",
        "meta_object_name": "BEIDOU-3 M19 (C41)",
        "meta_object_id": "2019-090A",
        "meta_epoch": "2025-12-23T08:14:02.545728",
        "meta_mean_motion": 1.86231621,
        "meta_eccentricity": 0.00183506,
        "meta_inclination": 56.4016,
        "meta_ra_of_asc_node": 68.6102,
        "meta_arg_of_pericenter": 285.1686,
        "meta_mean_anomaly": 74.3057,
        "meta_ephemeris_type": 0,
        "meta_classification_type": "U",
        "meta_norad_cat_id": 44864,
        "meta_element_set_no": 999,
        "meta_rev_at_epoch": 4095,
        "meta_bstar": 0,
        "meta_mean_motion_dot": -2.5e-07,
        "meta_mean_motion_ddot": 0,
        "tle_line1": "1 44864U 19090A   25357.34308502 -.00000025  00000+0  00000+0 0  9998",
        "tle_line2": "2 44864  56.4016  68.6102 0018350 285.1686  74.3057  1.86231621 40950"
      },
      "geometry": {
        "type": "Point",
        "coordinates": [
          20.569410125812887,
          -48.23495057161447
        ]
      }
    },
    {
      "type": "Feature",
      "properties": {
        "norad_id": 44865,
        "name": "BEIDOU-3 M20 (C42)",
        "group": "beidou",
        "lat": 21.574204634855175,
        "lon": 83.84881905246122,
        "alt_km": 21524.59000465785,
        "timestamp": "2025-12-24T07:45:06.465332+00:00",
        "meta_object_name": "BEIDOU-3 M20 (C42)",
        "meta_object_id": "2019-090B",
        "meta_epoch": "2025-12-23T05:19:57.002592",
        "meta_mean_motion": 1.86231582,
        "meta_eccentricity": 0.00155076,
        "meta_inclination": 56.4032,
        "meta_ra_of_asc_node": 68.6485,
        "meta_arg_of_pericenter": 297.2888,
        "meta_mean_anomaly": 70.7426,
        "meta_ephemeris_type": 0,
        "meta_classification_type": "U",
        "meta_norad_cat_id": 44865,
        "meta_element_set_no": 999,
        "meta_rev_at_epoch": 4094,
        "meta_bstar": 0,
        "meta_mean_motion_dot": -2.6e-07,
        "meta_mean_motion_ddot": 0,
        "tle_line1": "1 44865U 19090B   25357.22218753 -.00000026  00000+0  00000+0 0  9995",
        "tle_line2": "2 44865  56.4032  68.6485 0015507 297.2888  70.7426  1.86231582 40947"
      },
      "geometry": {
        "type": "Point",
        "coordinates": [
          83.84881905246122,
          21.574204634855175
        ]
      }
    },
    {
      "type": "Feature",
      "properties": {
        "norad_id": 45344,
        "name": "BEIDOU-3 G2 (C60)",
        "group": "beidou",
        "lat": -2.3064861167607384,
        "lon": -70.6046057346206,
        "alt_km": 35776.97659262262,
        "timestamp": "2025-12-24T07:45:06.465343+00:00",
        "meta_object_name": "BEIDOU-3 G2 (C60)",
        "meta_object_id": "2020-017A",
        "meta_epoch": "2025-12-23T23:47:05.724672",
        "meta_mean_motion": 1.00272217,
        "meta_eccentricity": 0.000222,
        "meta_inclination": 2.5166,
        "meta_ra_of_asc_node": 44.183,
        "meta_arg_of_pericenter": 236.7044,
        "meta_mean_anomaly": 248.6997,
        "meta_ephemeris_type": 0,
        "meta_classification_type": "U",
        "meta_norad_cat_id": 45344,
        "meta_element_set_no": 999,
        "meta_rev_at_epoch": 2150,
        "meta_bstar": 0,
        "meta_mean_motion_dot": -1.2e-06,
        "meta_mean_motion_ddot": 0,
        "tle_line1": "1 45344U 20017A   25357.99103848 -.00000120  00000+0  00000+0 0  9996",
        "tle_line2": "2 45344   2.5166  44.1830 0002220 236.7044 248.6997  1.00272217 21509"
      },
      "geometry": {
        "type": "Point",
        "coordinates": [
          -70.6046057346206,
          -2.3064861167607384
        ]
      }
    },
    {
      "type": "Feature",
      "properties": {
        "norad_id": 45807,
        "name": "BEIDOU-3 G3 (C61)",
        "group": "beidou",
        "lat": -1.9489978702016781,
        "lon": -40.15690990639651,
        "alt_km": 35771.906482557075,
        "timestamp": "2025-12-24T07:45:06.465355+00:00",
        "meta_object_name": "BEIDOU-3 G3 (C61)",
        "meta_object_id": "2020-040A",
        "meta_epoch": "2025-12-23T22:13:07.225248",
        "meta_mean_motion": 1.00268431,
        "meta_eccentricity": 0.00065719,
        "meta_inclination": 2.0164,
        "meta_ra_of_asc_node": 66.6762,
        "meta_arg_of_pericenter": 309.0867,
        "meta_mean_anomaly": 160.7733,
        "meta_ephemeris_type": 0,
        "meta_classification_type": "U",
        "meta_norad_cat_id": 45807,
        "meta_element_set_no": 999,
        "meta_rev_at_epoch": 2031,
        "meta_bstar": 0,
        "meta_mean_motion_dot": -3.33e-06,
        "meta_mean_motion_ddot": 0,
        "tle_line1": "1 45807U 20040A   25357.92577807 -.00000333  00000+0  00000+0 0  9995",
        "tle_line2": "2 45807   2.0164  66.6762 0006571 309.0867 160.7733  1.00268431 20312"
      },
      "geometry": {
        "type": "Point",
        "coordinates": [
          -40.15690990639651,
          -1.9489978702016781
        ]
      }
    },
    {
      "type": "Feature",
      "properties": {
        "norad_id": 56564,
        "name": "BEIDOU-3 G4 (C62)",
        "group": "beidou",
        "lat": 0.7252388720431918,
        "lon": 9.412927690084963,
        "alt_km": 35796.613012721085,
        "timestamp": "2025-12-24T07:45:06.465367+00:00",
        "meta_object_name": "BEIDOU-3 G4 (C62)",
        "meta_object_id": "2023-066A",
        "meta_epoch": "2025-12-23T22:27:13.375008",
        "meta_mean_motion": 1.00271058,
        "meta_eccentricity": 0.00026171,
        "meta_inclination": 0.7917,
        "meta_ra_of_asc_node": 302.9037,
        "meta_arg_of_pericenter": 228.0114,
        "meta_mean_anomaly": 58.6657,
        "meta_ephemeris_type": 0,
        "meta_classification_type": "U",
        "meta_norad_cat_id": 56564,
        "meta_element_set_no": 999,
        "meta_rev_at_epoch": 963,
        "meta_bstar": 0,
        "meta_mean_motion_dot": -9e-07,
        "meta_mean_motion_ddot": 0,
        "tle_line1": "1 56564U 23066A   25357.93557147 -.00000090  00000+0  00000+0 0  9994",
        "tle_line2": "2 56564   0.7917 302.9037 0002617 228.0114  58.6657  1.00271058  9639"
      },
      "geometry": {
        "type": "Point",
        "coordinates": [
          9.412927690084963,
          0.7252388720431918
        ]
      }
    },
    {
      "type": "Feature",
      "properties": {
        "norad_id": 58654,
        "name": "BEIDOU-3 M28 (C50)",
        "group": "beidou",
        "lat": 37.94463616394082,
        "lon": 100.481848969852,
        "alt_km": 21529.039868457672,
        "timestamp": "2025-12-24T07:45:06.465378+00:00",
        "meta_object_name": "BEIDOU-3 M28 (C50)",
        "meta_object_id": "2023-207A",
        "meta_epoch": "2025-12-23T04:15:12.326400",
        "meta_mean_motion": 1.86229739,
        "meta_eccentricity": 0.00028337,
        "meta_inclination": 55.5933,
        "meta_ra_of_asc_node": 68.248,
        "meta_arg_of_pericenter": 274.486,
        "meta_mean_anomaly": 85.5342,
        "meta_ephemeris_type": 0,
        "meta_classification_type": "U",
        "meta_norad_cat_id": 58654,
        "meta_element_set_no": 999,
        "meta_rev_at_epoch": 1356,
        "meta_bstar": 0,
        "meta_mean_motion_dot": -2.8e-07,
        "meta_mean_motion_ddot": 0,
        "tle_line1": "1 58654U 23207A   25357.17722600 -.00000028  00000+0  00000+0 0  9998",
        "tle_line2": "2 58654  55.5933  68.2480 0002833 274.4860  85.5342  1.86229739 13564"
      },
      "geometry": {
        "type": "Point",
        "coordinates": [
          100.481848969852,
          37.94463616394082
        ]
      }
    }
  ]
}